ONEWEB-0228             
1 48780U 21045P   24095.60719238 -.00000017  00000+0 -78150-4 0  9999
2 48780  87.9000  59.0908 0001823  79.7432 280.3904 13.15549352138679
